KUIPER-00035            
1 63748U 25088AA  25349.76775050  .00002252  00000+0  32435-3 0  9991
2 63748  51.8995 125.2150 0007585 147.5466 212.5964 14.79939649 35087
KUIPER-00037            
1 63749U 25088AB  25349.91668981  .00059535  00000+0  83021-2 0  9995
2 63749  51.8978 123.4783 0007726 101.9199 336.9699 14.77107900  5487
KUIPER-00038            
1 63750U 25088AC  25349.65041223 -.00003376  00000+0 -41353-3 0  9999
2 63750  51.9016 109.6984 0007611 149.8550 210.2852 14.79942474 35075
KUIPER-00039            
1 64500U 25134A   25349.89320406  .00040953  00000+0  53904-2 0  9998
2 64500  51.9011 243.6293 0011625  13.5380 346.5892 14.79718589 27665
KUIPER-00040            
1 64501U 25134B   25349.94802199  .00002433  00000+0  34720-3 0  9996
2 64501  51.8994 254.5397 0017595 351.2256   8.8396 14.80000588 27513
KUIPER-00041            
1 64502U 25134C   25349.94654046 -.00027930  00000+0 -36450-2 0  9995
2 64502  51.8993 255.8957 0013735 350.2933   9.7762 14.79912505 27495
KUIPER-00042            
1 64503U 25134D   25349.95092424 -.00003496  00000+0 -42885-3 0  9994
2 64503  51.8990 251.8867 0012062   5.8544 354.2557 14.79932887 27554
KUIPER-00043            
1 64504U 25134E   25349.89154518  .00003217  00000+0  45077-3 0  9996
2 64504  51.9010 244.5977 0003746  20.6747 339.4367 14.79935392 27658
